0 PEGASUS R/B
1 25281U 98020B   13282.52404991  .00003576  00000-0  24315-3 0  5802
2 25281 097.5594 103.7337 0013990 078.6449 309.0994 15.06894024848961
0 PEGASUS R/B
1 25281U 98020B   13283.80361514  .00004260  00000-0  28881-3 0  5811
2 25281 097.5596 104.9900 0014023 074.9318 049.8608 15.06898245849156
0 PEGASUS R/B
1 25281U 98020B   13286.19381194  .00003060  00000-0  20856-3 0  5835
2 25281 097.5585 107.3374 0014022 068.2525 054.8685 15.06914565849516
0 PEGASUS R/B
1 25281U 98020B   13287.51003157  .00003391  00000-0  23067-3 0  5847
2 25281 097.5579 108.6300 0013911 064.2755 354.7179 15.06921282849715
0 PEGASUS R/B
1 25281U 98020B   13288.84788002  .00004009  00000-0  27180-3 0  5851
2 25281 097.5577 109.9434 0013865 059.9691 052.2059 15.06933748849912
0 PEGASUS R/B
1 25281U 98020B   13290.16711897  .00003747  00000-0  25428-3 0  5869
2 25281 097.5571 111.2390 0013697 055.5679 008.9450 15.06941160850118
0 PEGASUS R/B
1 25281U 98020B   13291.49357576  .00003575  00000-0  24280-3 0  5871
2 25281 097.5569 112.5416 0013540 050.9239 005.0976 15.06949003850313
0 PEGASUS R/B
1 25281U 98020B   13292.83229653  .00003939  00000-0  26703-3 0  5881
2 25281 097.5569 113.8561 0013382 046.3672 067.6923 15.06956029850516
0 PEGASUS R/B
1 25281U 98020B   13294.16390787  .00004607  00000-0  31156-3 0  5898
2 25281 097.5572 115.1636 0013286 041.7741 091.8111 15.06962588850714
0 PEGASUS R/B
1 25281U 98020B   13295.47684471  .00005312  00000-0  35845-3 0  5904
2 25281 097.5581 116.4530 0013172 037.6585 014.2415 15.06972789850917
